[{"OBJECT_NAME":"GLOBAL-2","OBJECT_ID":"2018-099BG","EPOCH":"2026-03-09T16:47:21.463008","MEAN_MOTION":15.08046936,"ECCENTRICITY":0.00074537,"INCLINATION":97.3697,"RA_OF_ASC_NODE":109.328,"ARG_OF_PERICENTER":127.1924,"MEAN_ANOMALY":232.9986,"EPHEMERIS_TYPE":0,"CLASSIFICATION_TYPE":"U","NORAD_CAT_ID":43812,"ELEMENT_SET_NO":999,"REV_AT_EPOCH":39691,"BSTAR":0.0002614533,"MEAN_MOTION_DOT":3.97e-5,"MEAN_MOTION_DDOT":0},{"OBJECT_NAME":"STARLINK-3889","OBJECT_ID":"2022-045A","EPOCH":"2026-03-09T15:32:25.510272","MEAN_MOTION":15.08847966,"ECCENTRICITY":0.0001492,"INCLINATION":53.2171,"RA_OF_ASC_NODE":209.3111,"ARG_OF_PERICENTER":101.3829,"MEAN_ANOMALY":258.7331,"EPHEMERIS_TYPE":0,"CLASSIFICATION_TYPE":"U","NORAD_CAT_ID":52331,"ELEMENT_SET_NO":999,"REV_AT_EPOCH":21563,"BSTAR":7.3403e-5,"MEAN_MOTION_DOT":8.81e-6,"MEAN_MOTION_DDOT":0}]
