GLOBAL-2                
1 43812U 18099BG  26068.69955396  .00003970  00000+0  26145-3 0  9998
2 43812  97.3697 109.3280 0007454 127.1924 232.9986 15.08046936396919
STARLINK-3889           
1 52331U 22045A   26068.64751748  .00000881  00000+0  73403-4 0  9998
2 52331  53.2171 209.3111 0001492 101.3829 258.7331 15.08847966215632
